{"type": "FeatureCollection", "features": [ {"type": "Feature", "properties": {"norad_id": 66806, "name": "STARLINK-36069", "group": "last-30-days", "lat": 29.702104288429826, "lon": 13.32550156602231, "alt_km": 334.3038800266786, "timestamp": "2025-12-16T03:53:25.816884+00:00", "meta": {"OBJECT_NAME": "STARLINK-36069", "OBJECT_ID": "2025-278R", "EPOCH": "2025-12-15T06:00:04.999968", "MEAN_MOTION": 15.80005396, "ECCENTRICITY": 0.00017968, "INCLINATION": 42.9975, "RA_OF_ASC_NODE": 236.6405, "ARG_OF_PERICENTER": 279.5587, "MEAN_ANOMALY": 63.9031, "EPHEMERIS_TYPE": 0, "CLASSIFICATION_TYPE": "U", "NORAD_CAT_ID": 66806, "ELEMENT_SET_NO": 999, "REV_AT_EPOCH": 315, "BSTAR": -0.0076659042, "MEAN_MOTION_DOT": -0.01293958, "MEAN_MOTION_DDOT": 0}, "tle": {"line1": "1 66806U 25278R   25349.25005787 -.01293958  00000+0 -76659-2 0  9990", "line2": "2 66806  42.9975 236.6405 0001796 279.5587  63.9031 15.80005396  3154"}}, "geometry": {"type": "Point", "coordinates": [13.32550156602231, 29.702104288429826]}}, {"type": "Feature", "properties": {"norad_id": 66807, "name": "STARLINK-36000", "group": "last-30-days", "lat": 26.159996630104132, "lon": 19.244933693042963, "alt_km": 335.32756993611474, "timestamp": "2025-12-16T03:53:25.816894+00:00", "meta": {"OBJECT_NAME": "STARLINK-36000", "OBJECT_ID": "2025-278S", "EPOCH": "2025-12-15T06:00:04.999968", "MEAN_MOTION": 15.79898783, "ECCENTRICITY": 0.00019398, "INCLINATION": 42.9971, "RA_OF_ASC_NODE": 236.6236, "ARG_OF_PERICENTER": 277.6166, "MEAN_ANOMALY": 72.6265, "EPHEMERIS_TYPE": 0, "CLASSIFICATION_TYPE": "U", "NORAD_CAT_ID": 66807, "ELEMENT_SET_NO": 999, "REV_AT_EPOCH": 342, "BSTAR": -0.0079026741, "MEAN_MOTION_DOT": -0.01348293, "MEAN_MOTION_DDOT": 0}, "tle": {"line1": "1 66807U 25278S   25349.25005787 -.01348293  00000+0 -79027-2 0  9996", "line2": "2 66807  42.9971 236.6236 0001939 277.6166  72.6265 15.79898783  3428"}}, "geometry": {"type": "Point", "coordinates": [19.244933693042963, 26.159996630104132]}}, {"type": "Feature", "properties": {"norad_id": 66808, "name": "STARLINK-36071", "group": "last-30-days", "lat": 24.96099454910228, "lon": 21.082622120805514, "alt_km": 335.5711714672634, "timestamp": "2025-12-16T03:53:25.816906+00:00", "meta": {"OBJECT_NAME": "STARLINK-36071", "OBJECT_ID": "2025-278T", "EPOCH": "2025-12-15T06:00:04.999968", "MEAN_MOTION": 15.79876146, "ECCENTRICITY": 0.00018555, "INCLINATION": 42.9974, "RA_OF_ASC_NODE": 236.6178, "ARG_OF_PERICENTER": 277.7229, "MEAN_ANOMALY": 74.6804, "EPHEMERIS_TYPE": 0, "CLASSIFICATION_TYPE": "U", "NORAD_CAT_ID": 66808, "ELEMENT_SET_NO": 999, "REV_AT_EPOCH": 336, "BSTAR": -0.0079817396, "MEAN_MOTION_DOT": -0.01359014, "MEAN_MOTION_DDOT": 0}, "tle": {"line1": "1 66808U 25278T   25349.25005787 -.01359014  00000+0 -79817-2 0  9997", "line2": "2 66808  42.9974 236.6178 0001855 277.7229  74.6804 15.79876146  3368"}}, "geometry": {"type": "Point", "coordinates": [21.082622120805514, 24.96099454910228]}}, {"type": "Feature", "properties": {"norad_id": 66809, "name": "STARLINK-35979", "group": "last-30-days", "lat": 21.126813881229353, "lon": 26.53747167925543, "alt_km": 336.83403391816955, "timestamp": "2025-12-16T03:53:25.816917+00:00", "meta": {"OBJECT_NAME": "STARLINK-35979", "OBJECT_ID": "2025-278U", "EPOCH": "2025-12-15T06:00:04.999968", "MEAN_MOTION": 15.797351, "ECCENTRICITY": 0.00018977, "INCLINATION": 42.9975, "RA_OF_ASC_NODE": 236.5999, "ARG_OF_PERICENTER": 275.8946, "MEAN_ANOMALY": 83.5214, "EPHEMERIS_TYPE": 0, "CLASSIFICATION_TYPE": "U", "NORAD_CAT_ID": 66809, "ELEMENT_SET_NO": 999, "REV_AT_EPOCH": 336, "BSTAR": -0.008458843, "MEAN_MOTION_DOT": -0.01422837, "MEAN_MOTION_DDOT": 0}, "tle": {"line1": "1 66809U 25278U   25349.25005787 -.01422837  00000+0 -84588-2 0  9993", "line2": "2 66809  42.9975 236.5999 0001897 275.8946  83.5214 15.79735100  3369"}}, "geometry": {"type": "Point", "coordinates": [26.53747167925543, 21.126813881229353]}}, {"type": "Feature", "properties": {"norad_id": 66810, "name": "STARLINK-36046", "group": "last-30-days", "lat": 23.68701969065046, "lon": 22.96131458814878, "alt_km": 335.9768344090244, "timestamp": "2025-12-16T03:53:25.816927+00:00", "meta": {"OBJECT_NAME": "STARLINK-36046", "OBJECT_ID": "2025-278V", "EPOCH": "2025-12-15T06:00:04.999968", "MEAN_MOTION": 15.79827218, "ECCENTRICITY": 0.00018679, "INCLINATION": 42.9975, "RA_OF_ASC_NODE": 236.6123, "ARG_OF_PERICENTER": 276.4212, "MEAN_ANOMALY": 78.3501, "EPHEMERIS_TYPE": 0, "CLASSIFICATION_TYPE": "U", "NORAD_CAT_ID": 66810, "ELEMENT_SET_NO": 999, "REV_AT_EPOCH": 313, "BSTAR": -0.008131786, "MEAN_MOTION_DOT": -0.01379003, "MEAN_MOTION_DDOT": 0}, "tle": {"line1": "1 66810U 25278V   25349.25005787 -.01379003  00000+0 -81318-2 0  9999", "line2": "2 66810  42.9975 236.6123 0001867 276.4212  78.3501 15.79827218  3139"}}, "geometry": {"type": "Point", "coordinates": [22.96131458814878, 23.68701969065046]}}, {"type": "Feature", "properties": {"norad_id": 66811, "name": "STARLINK-36045", "group": "last-30-days", "lat": 22.40405900955691, "lon": 24.78410411274788, "alt_km": 336.37742207341216, "timestamp": "2025-12-16T03:53:25.816937+00:00", "meta": {"OBJECT_NAME": "STARLINK-36045", "OBJECT_ID": "2025-278W", "EPOCH": "2025-12-15T06:00:04.999968", "MEAN_MOTION": 15.79778882, "ECCENTRICITY": 0.00018696, "INCLINATION": 42.9977, "RA_OF_ASC_NODE": 236.6061, "ARG_OF_PERICENTER": 272.8704, "MEAN_ANOMALY": 84.2838, "EPHEMERIS_TYPE": 0, "CLASSIFICATION_TYPE": "U", "NORAD_CAT_ID": 66811, "ELEMENT_SET_NO": 999, "REV_AT_EPOCH": 336, "BSTAR": -0.0083540922, "MEAN_MOTION_DOT": -0.01409694, "MEAN_MOTION_DDOT": 0}, "tle": {"line1": "1 66811U 25278W   25349.25005787 -.01409694  00000+0 -83541-2 0  9990", "line2": "2 66811  42.9977 236.6061 0001869 272.8704  84.2838 15.79778882  3367"}}, "geometry": {"type": "Point", "coordinates": [24.78410411274788, 22.40405900955691]}}, {"type": "Feature", "properties": {"norad_id": 66812, "name": "STARLINK-36054", "group": "last-30-days", "lat": 19.88895159842308, "lon": 28.186920868345805, "alt_km": 337.11334426416306, "timestamp": "2025-12-16T03:53:25.816947+00:00", "meta": {"OBJECT_NAME": "STARLINK-36054", "OBJECT_ID": "2025-278X", "EPOCH": "2025-12-15T06:00:04.999968", "MEAN_MOTION": 15.79717842, "ECCENTRICITY": 0.00018491, "INCLINATION": 42.9978, "RA_OF_ASC_NODE": 236.595, "ARG_OF_PERICENTER": 274.4578, "MEAN_ANOMALY": 87.0768, "EPHEMERIS_TYPE": 0, "CLASSIFICATION_TYPE": "U", "NORAD_CAT_ID": 66812, "ELEMENT_SET_NO": 999, "REV_AT_EPOCH": 336, "BSTAR": -0.0086175215, "MEAN_MOTION_DOT": -0.01445409, "MEAN_MOTION_DDOT": 0}, "tle": {"line1": "1 66812U 25278X   25349.25005787 -.01445409  00000+0 -86175-2 0  9991", "line2": "2 66812  42.9978 236.5950 0001849 274.4578  87.0768 15.79717842  3362"}}, "geometry": {"type": "Point", "coordinates": [28.186920868345805, 19.88895159842308]}}, {"type": "Feature", "properties": {"norad_id": 66813, "name": "STARLINK-36042", "group": "last-30-days", "lat": 18.63879277398806, "lon": 29.805855650534674, "alt_km": 337.34290839002915, "timestamp": "2025-12-16T03:53:25.816957+00:00", "meta": {"OBJECT_NAME": "STARLINK-36042", "OBJECT_ID": "2025-278Y", "EPOCH": "2025-12-15T06:00:04.999968", "MEAN_MOTION": 15.79704933, "ECCENTRICITY": 0.00018266, "INCLINATION": 42.9978, "RA_OF_ASC_NODE": 236.5894, "ARG_OF_PERICENTER": 275.0972, "MEAN_ANOMALY": 88.4755, "EPHEMERIS_TYPE": 0, "CLASSIFICATION_TYPE": "U", "NORAD_CAT_ID": 66813, "ELEMENT_SET_NO": 999, "REV_AT_EPOCH": 336, "BSTAR": -0.0086581186, "MEAN_MOTION_DOT": -0.01450651, "MEAN_MOTION_DDOT": 0}, "tle": {"line1": "1 66813U 25278Y   25349.25005787 -.01450651  00000+0 -86581-2 0  9998", "line2": "2 66813  42.9978 236.5894 0001826 275.0972  88.4755 15.79704933  3368"}}, "geometry": {"type": "Point", "coordinates": [29.805855650534674, 18.63879277398806]}}, {"type": "Feature", "properties": {"norad_id": 66814, "name": "STARLINK-35984", "group": "last-30-days", "lat": 10.516470886531668, "lon": 39.504639818581175, "alt_km": 339.6938019207564, "timestamp": "2025-12-16T03:53:25.816968+00:00", "meta": {"OBJECT_NAME": "STARLINK-35984", "OBJECT_ID": "2025-278Z", "EPOCH": "2025-12-15T06:00:04.999968", "MEAN_MOTION": 15.79298685, "ECCENTRICITY": 0.00017996, "INCLINATION": 42.9976, "RA_OF_ASC_NODE": 236.5538, "ARG_OF_PERICENTER": 273.0448, "MEAN_ANOMALY": 104.4846, "EPHEMERIS_TYPE": 0, "CLASSIFICATION_TYPE": "U", "NORAD_CAT_ID": 66814, "ELEMENT_SET_NO": 999, "REV_AT_EPOCH": 345, "BSTAR": -0.0091990652, "MEAN_MOTION_DOT": -0.01505191, "MEAN_MOTION_DDOT": 0}, "tle": {"line1": "1 66814U 25278Z   25349.25005787 -.01505191  00000+0 -91991-2 0  9990", "line2": "2 66814  42.9976 236.5538 0001799 273.0448 104.4846 15.79298685  3459"}}, "geometry": {"type": "Point", "coordinates": [39.504639818581175, 10.516470886531668]}}, {"type": "Feature", "properties": {"norad_id": 66815, "name": "STARLINK-35985", "group": "last-30-days", "lat": 11.825538829003955, "lon": 38.015591946128964, "alt_km": 339.6876838138596, "timestamp": "2025-12-16T03:53:25.816982+00:00", "meta": {"OBJECT_NAME": "STARLINK-35985", "OBJECT_ID": "2025-278AA", "EPOCH": "2025-12-15T06:00:04.999968", "MEAN_MOTION": 15.79321232, "ECCENTRICITY": 0.00018206, "INCLINATION": 42.9973, "RA_OF_ASC_NODE": 236.559, "ARG_OF_PERICENTER": 281.1663, "MEAN_ANOMALY": 94.2875, "EPHEMERIS_TYPE": 0, "CLASSIFICATION_TYPE": "U", "NORAD_CAT_ID": 66815, "ELEMENT_SET_NO": 999, "REV_AT_EPOCH": 345, "BSTAR": -0.0091229016, "MEAN_MOTION_DOT": -0.01495603, "MEAN_MOTION_DDOT": 0}, "tle": {"line1": "1 66815U 25278AA  25349.25005787 -.01495603  00000+0 -91229-2 0  9991", "line2": "2 66815  42.9973 236.5590 0001820 281.1663  94.2875 15.79321232  3452"}}, "geometry": {"type": "Point", "coordinates": [38.015591946128964, 11.825538829003955]}}]}